{"type":"FeatureCollection","name":"effis_viirs_hs_today_wfs_local","metadata":{"generated_at_utc":"2026-04-14T15:01:38.444919+00:00","source":"EFFIS Copernicus WMTS","source_mode":"effis","endpoint_url":null,"effis_wmts_url":"https://maps.effis.emergency.copernicus.eu/gwist/wmts","effis_request_mode":"rest","wms_fallback":true,"wms_fallback_url":"https://maps.effis.emergency.copernicus.eu/gwis","tiles_fallback_wms":68,"layer":"viirs.hs.today","zoom":8,"bbox":[-18.5,27.5,4.5,43.9],"geometry":"point","min_alpha":10,"min_pixels":3,"tile_size":"auto","tiles_total":270,"tiles_ok":266,"tiles_empty":230,"tiles_failed":4,"failed_tiles":[{"x":119,"y":106,"error":"Server error '502 Bad Gateway' for url 'https://maps.effis.emergency.copernicus.eu/gwis?SERVICE=WMS&VERSION=1.1.1&REQUEST=GetMap&LAYERS=viirs.hs.today&STYLES=default&FORMAT=image%2Fpng&TRANSPARENT=true&SRS=EPSG%3A3857&BBOX=-1408887.3053523675%2C3287403.71248886%2C-1252344.271424327%2C3443946.746416902&WIDTH=1024&HEIGHT=1024'\nFor more information check: https://developer.mozilla.org/en-US/docs/Web/HTTP/Status/502"},{"x":118,"y":106,"error":"Server error '502 Bad Gateway' for url 'https://maps.effis.emergency.copernicus.eu/gwis?SERVICE=WMS&VERSION=1.1.1&REQUEST=GetMap&LAYERS=viirs.hs.today&STYLES=default&FORMAT=image%2Fpng&TRANSPARENT=true&SRS=EPSG%3A3857&BBOX=-1565430.3392804079%2C3287403.71248886%2C-1408887.3053523675%2C3443946.746416902&WIDTH=1024&HEIGHT=1024'\nFor more information check: https://developer.mozilla.org/en-US/docs/Web/HTTP/Status/502"},{"x":122,"y":106,"error":"Server error '502 Bad Gateway' for url 'https://maps.effis.emergency.copernicus.eu/gwis?SERVICE=WMS&VERSION=1.1.1&REQUEST=GetMap&LAYERS=viirs.hs.today&STYLES=default&FORMAT=image%2Fpng&TRANSPARENT=true&SRS=EPSG%3A3857&BBOX=-939258.2035682462%2C3287403.71248886%2C-782715.1696402058%2C3443946.746416902&WIDTH=1024&HEIGHT=1024'\nFor more information check: https://developer.mozilla.org/en-US/docs/Web/HTTP/Status/502"},{"x":118,"y":107,"error":"Server error '503 Service Temporarily Unavailable' for url 'https://maps.effis.emergency.copernicus.eu/gwis?SERVICE=WMS&VERSION=1.1.1&REQUEST=GetMap&LAYERS=viirs.hs.today&STYLES=default&FORMAT=image%2Fpng&TRANSPARENT=true&SRS=EPSG%3A3857&BBOX=-1565430.3392804079%2C3130860.6785608195%2C-1408887.3053523675%2C3287403.71248886&WIDTH=1024&HEIGHT=1024'\nFor more information check: https://developer.mozilla.org/en-US/docs/Web/HTTP/Status/503"}],"warning":"Capa vectorial derivada de teselas WMTS PNG; no contiene atributos originales de un WFS nativo."},"features":[{"type":"Feature","id":"viirs.hs.today:8:121:93:880:774:499","geometry":{"type":"Point","coordinates":[-8.619240892674014,43.30535701929593]},"properties":{"id":"viirs.hs.today:8:121:93:880:774:499","source":"effis_wmts","source_mode":"effis","layer":"viirs.hs.today","zoom":8,"tile_x":121,"tile_y":93,"pixel_count":499,"pixel_bbox":[880,774,904,802],"bbox_wgs84":[-8.63525390625,43.290201573256965,-8.600921630859375,43.31918320532586],"avg_color":"#FEB3C7"}},{"type":"Feature","id":"viirs.hs.today:8:122:93:0:740:51","geometry":{"type":"Point","coordinates":[-8.434443754308347,43.347573365823024]},"properties":{"id":"viirs.hs.today:8:122:93:0:740:51","source":"effis_wmts","source_mode":"effis","layer":"viirs.hs.today","zoom":8,"tile_x":122,"tile_y":93,"pixel_count":51,"pixel_bbox":[0,740,4,751],"bbox_wgs84":[-8.4375,43.341160054123065,-8.430633544921875,43.35314407444697],"avg_color":"#FD0000"}},{"type":"Feature","id":"viirs.hs.today:8:123:93:940:557:192","geometry":{"type":"Point","coordinates":[-5.730843544006348,43.527294705925065]},"properties":{"id":"viirs.hs.today:8:123:93:940:557:192","source":"effis_wmts","source_mode":"effis","layer":"viirs.hs.today","zoom":8,"tile_x":123,"tile_y":93,"pixel_count":192,"pixel_bbox":[940,557,952,574],"bbox_wgs84":[-5.7403564453125,43.51768440153493,-5.722503662109375,43.535607188089735],"avg_color":"#FD3035"}},{"type":"Feature","id":"viirs.hs.today:8:131:93:700:584:60","geometry":{"type":"Point","coordinates":[5.185546875,43.50423881694708]},"properties":{"id":"viirs.hs.today:8:131:93:700:584:60","source":"effis_wmts","source_mode":"effis","layer":"viirs.hs.today","zoom":8,"tile_x":131,"tile_y":93,"pixel_count":60,"pixel_bbox":[700,584,707,592],"bbox_wgs84":[5.1800537109375,43.49975628978044,5.1910400390625,43.50872101129685],"avg_color":"#FD0506"}},{"type":"Feature","id":"viirs.hs.today:8:131:93:475:637:391","geometry":{"type":"Point","coordinates":[4.890828437512482,43.443630955479094]},"properties":{"id":"viirs.hs.today:8:131:93:475:637:391","source":"effis_wmts","source_mode":"effis","layer":"viirs.hs.today","zoom":8,"tile_x":131,"tile_y":93,"pixel_count":391,"pixel_bbox":[475,637,500,661],"bbox_wgs84":[4.871063232421875,43.430982532484876,4.906768798828125,43.45590959925725],"avg_color":"#FDA5B8"}},{"type":"Feature","id":"viirs.hs.today:8:131:93:573:707:81","geometry":{"type":"Point","coordinates":[5.0118255615234375,43.38159664007785]},"properties":{"id":"viirs.hs.today:8:131:93:573:707:81","source":"effis_wmts","source_mode":"effis","layer":"viirs.hs.today","zoom":8,"tile_x":131,"tile_y":93,"pixel_count":81,"pixel_bbox":[573,707,581,715],"bbox_wgs84":[5.005645751953125,43.377105017000716,5.01800537109375,43.386087930415634],"avg_color":"#FDB2C6"}},{"type":"Feature","id":"viirs.hs.today:8:123:94:186:508:81","geometry":{"type":"Point","coordinates":[-6.7696380615234375,42.55257446871251]},"properties":{"id":"viirs.hs.today:8:123:94:186:508:81","source":"effis_wmts","source_mode":"effis","layer":"viirs.hs.today","zoom":8,"tile_x":123,"tile_y":94,"pixel_count":81,"pixel_bbox":[186,508,194,516],"bbox_wgs84":[-6.77581787109375,42.54802190204827,-6.763458251953125,42.55712670332118],"avg_color":"#FD0000"}},{"type":"Feature","id":"viirs.hs.today:8:126:94:775:248:62","geometry":{"type":"Point","coordinates":[-1.7425069501323094,42.815031425947744]},"properties":{"id":"viirs.hs.today:8:126:94:775:248:62","source":"effis_wmts","source_mode":"effis","layer":"viirs.hs.today","zoom":8,"tile_x":126,"tile_y":94,"pixel_count":62,"pixel_bbox":[775,248,783,256],"bbox_wgs84":[-1.748199462890625,42.81051429991594,-1.73583984375,42.819580715795915],"avg_color":"#FDB2C6"}},{"type":"Feature","id":"viirs.hs.today:8:130:94:27:1004:65","geometry":{"type":"Point","coordinates":[2.8557586669921875,42.04859448929005]},"properties":{"id":"viirs.hs.today:8:130:94:27:1004:65","source":"effis_wmts","source_mode":"effis","layer":"viirs.hs.today","zoom":8,"tile_x":130,"tile_y":94,"pixel_count":65,"pixel_bbox":[27,1004,35,1012],"bbox_wgs84":[2.849578857421875,42.04419361816521,2.8619384765625,42.05337156043361],"avg_color":"#FC0000"}},{"type":"Feature","id":"viirs.hs.today:8:122:95:241:1009:98","geometry":{"type":"Point","coordinates":[-8.096713630520554,40.99039170313445]},"properties":{"id":"viirs.hs.today:8:122:95:241:1009:98","source":"effis_wmts","source_mode":"effis","layer":"viirs.hs.today","zoom":8,"tile_x":122,"tile_y":95,"pixel_count":98,"pixel_bbox":[241,1009,254,1018],"bbox_wgs84":[-8.106536865234375,40.98508162551434,-8.087310791015625,40.99544751505734],"avg_color":"#FC0000"}},{"type":"Feature","id":"viirs.hs.today:8:126:95:959:539:83","geometry":{"type":"Point","coordinates":[-1.4893506521202085,41.4760506930774]},"properties":{"id":"viirs.hs.today:8:126:95:959:539:83","source":"effis_wmts","source_mode":"effis","layer":"viirs.hs.today","zoom":8,"tile_x":126,"tile_y":95,"pixel_count":83,"pixel_bbox":[959,539,967,548],"bbox_wgs84":[-1.495513916015625,41.470515392942964,-1.483154296875,41.48080459927736],"avg_color":"#FD7F8E"}},{"type":"Feature","id":"viirs.hs.today:8:128:95:126:100:95","geometry":{"type":"Point","coordinates":[0.18048657869036333,41.924539233919695]},"properties":{"id":"viirs.hs.today:8:128:95:126:100:95","source":"effis_wmts","source_mode":"effis","layer":"viirs.hs.today","zoom":8,"tile_x":128,"tile_y":95,"pixel_count":95,"pixel_bbox":[126,100,136,111],"bbox_wgs84":[0.17303466796875,41.918628865183024,0.188140869140625,41.93088998442503],"avg_color":"#FCB2C6"}},{"type":"Feature","id":"viirs.hs.today:8:129:95:561:541:72","geometry":{"type":"Point","coordinates":[2.1828460693359375,41.47463127147777]},"properties":{"id":"viirs.hs.today:8:129:95:561:541:72","source":"effis_wmts","source_mode":"effis","layer":"viirs.hs.today","zoom":8,"tile_x":129,"tile_y":95,"pixel_count":72,"pixel_bbox":[561,541,569,548],"bbox_wgs84":[2.176666259765625,41.470515392942964,2.18902587890625,41.478746888678614],"avg_color":"#FEB3C7"}},{"type":"Feature","id":"viirs.hs.today:8:129:95:412:559:84","geometry":{"type":"Point","coordinates":[1.980563572474864,41.45554413120865]},"properties":{"id":"viirs.hs.today:8:129:95:412:559:84","source":"effis_wmts","source_mode":"effis","layer":"viirs.hs.today","zoom":8,"tile_x":129,"tile_y":95,"pixel_count":84,"pixel_bbox":[412,559,422,567],"bbox_wgs84":[1.9720458984375,41.45096140120389,1.987152099609375,41.460224553300456],"avg_color":"#FDB2C7"}},{"type":"Feature","id":"viirs.hs.today:8:129:95:426:606:91","geometry":{"type":"Point","coordinates":[1.999383444314475,41.40714427262433]},"properties":{"id":"viirs.hs.today:8:129:95:426:606:91","source":"effis_wmts","source_mode":"effis","layer":"viirs.hs.today","zoom":8,"tile_x":129,"tile_y":95,"pixel_count":91,"pixel_bbox":[426,606,436,614],"bbox_wgs84":[1.99127197265625,41.4025656711867,2.006378173828125,41.41183573100124],"avg_color":"#FDB3C7"}},{"type":"Feature","id":"viirs.hs.today:8:123:96:845:95:61","geometry":{"type":"Point","coordinates":[-5.8652696453157205,40.876967004356466]},"properties":{"id":"viirs.hs.today:8:123:96:845:95:61","source":"effis_wmts","source_mode":"effis","layer":"viirs.hs.today","zoom":8,"tile_x":123,"tile_y":96,"pixel_count":61,"pixel_bbox":[845,95,852,103],"bbox_wgs84":[-5.870819091796875,40.87198775669741,-5.859832763671875,40.88133311333722],"avg_color":"#FC0000"}},{"type":"Feature","id":"viirs.hs.today:8:125:96:676:215:61","geometry":{"type":"Point","coordinates":[-3.2848108010213934,40.75193859845989]},"properties":{"id":"viirs.hs.today:8:125:96:676:215:61","source":"effis_wmts","source_mode":"effis","layer":"viirs.hs.today","zoom":8,"tile_x":125,"tile_y":96,"pixel_count":61,"pixel_bbox":[676,215,684,223],"bbox_wgs84":[-3.2904052734375,40.74725696280421,-3.278045654296875,40.75661990450191],"avg_color":"#FD0000"}},{"type":"Feature","id":"viirs.hs.today:8:125:96:761:360:62","geometry":{"type":"Point","coordinates":[-3.1671191800025156,40.60105467543895]},"properties":{"id":"viirs.hs.today:8:125:96:761:360:62","source":"effis_wmts","source_mode":"effis","layer":"viirs.hs.today","zoom":8,"tile_x":125,"tile_y":96,"pixel_count":62,"pixel_bbox":[761,360,769,368],"bbox_wgs84":[-3.173675537109375,40.59622788325196,-3.16131591796875,40.60561205826018],"avg_color":"#FC0000"}},{"type":"Feature","id":"viirs.hs.today:8:125:96:536:699:111","geometry":{"type":"Point","coordinates":[-3.4748654752164327,40.24530686405429]},"properties":{"id":"viirs.hs.today:8:125:96:536:699:111","source":"effis_wmts","source_mode":"effis","layer":"viirs.hs.today","zoom":8,"tile_x":125,"tile_y":96,"pixel_count":111,"pixel_bbox":[536,699,547,710],"bbox_wgs84":[-3.482666015625,40.238653689944435,-3.4661865234375,40.25123231314497],"avg_color":"#FC8999"}},{"type":"Feature","id":"viirs.hs.today:8:127:96:1016:980:44","geometry":{"type":"Point","coordinates":[-0.005742853338063014,39.95157181422621]},"properties":{"id":"viirs.hs.today:8:127:96:1016:980:44","source":"effis_wmts","source_mode":"effis","layer":"viirs.hs.today","zoom":8,"tile_x":127,"tile_y":96,"pixel_count":44,"pixel_bbox":[1016,980,1023,988],"bbox_wgs84":[-0.010986328125,39.946595007738985,0.0,39.95606977009003],"avg_color":"#FCB2C6"}},{"type":"Feature","id":"viirs.hs.today:8:121:97:601:926:90","geometry":{"type":"Point","coordinates":[-9.01171875,38.92170332371774]},"properties":{"id":"viirs.hs.today:8:121:97:601:926:90","source":"effis_wmts","source_mode":"effis","layer":"viirs.hs.today","zoom":8,"tile_x":121,"tile_y":97,"pixel_count":90,"pixel_bbox":[601,926,610,935],"bbox_wgs84":[-9.018402099609375,38.91668153637509,-9.004669189453125,38.92736576394248],"avg_color":"#FD0000"}},{"type":"Feature","id":"viirs.hs.today:8:123:97:716:707:63","geometry":{"type":"Point","coordinates":[-6.041532244001132,39.15590129426942]},"properties":{"id":"viirs.hs.today:8:123:97:716:707:63","source":"effis_wmts","source_mode":"effis","layer":"viirs.hs.today","zoom":8,"tile_x":123,"tile_y":97,"pixel_count":63,"pixel_bbox":[716,707,724,715],"bbox_wgs84":[-6.0479736328125,39.151362679490305,-6.035614013671875,39.160946673216394],"avg_color":"#FC0000"}},{"type":"Feature","id":"viirs.hs.today:8:125:97:986:555:48","geometry":{"type":"Point","coordinates":[-2.85919189453125,39.31783159381384]},"properties":{"id":"viirs.hs.today:8:125:97:986:555:48","source":"effis_wmts","source_mode":"effis","layer":"viirs.hs.today","zoom":8,"tile_x":125,"tile_y":97,"pixel_count":48,"pixel_bbox":[986,555,993,563],"bbox_wgs84":[-2.86468505859375,39.31305046371389,-2.85369873046875,39.322612397176876],"avg_color":"#FBB2C5"}},{"type":"Feature","id":"viirs.hs.today:8:124:98:592:895:87","geometry":{"type":"Point","coordinates":[-4.805784554317086,37.85300170046459]},"properties":{"id":"viirs.hs.today:8:124:98:592:895:87","source":"effis_wmts","source_mode":"effis","layer":"viirs.hs.today","zoom":8,"tile_x":124,"tile_y":98,"pixel_count":87,"pixel_bbox":[592,895,600,904],"bbox_wgs84":[-4.81201171875,37.847748103485365,-4.799652099609375,37.858591415705575],"avg_color":"#FDB1C5"}},{"type":"Feature","id":"viirs.hs.today:8:124:98:574:923:95","geometry":{"type":"Point","coordinates":[-4.829524793122943,37.822602605783054]},"properties":{"id":"viirs.hs.today:8:124:98:574:923:95","source":"effis_wmts","source_mode":"effis","layer":"viirs.hs.today","zoom":8,"tile_x":124,"tile_y":98,"pixel_count":95,"pixel_bbox":[574,923,583,933],"bbox_wgs84":[-4.83673095703125,37.81629348024507,-4.822998046875,37.82822612280361],"avg_color":"#FC0001"}},{"type":"Feature","id":"viirs.hs.today:8:124:98:322:1002:81","geometry":{"type":"Point","coordinates":[-5.1766204833984375,37.737598269779824]},"properties":{"id":"viirs.hs.today:8:124:98:322:1002:81","source":"effis_wmts","source_mode":"effis","layer":"viirs.hs.today","zoom":8,"tile_x":124,"tile_y":98,"pixel_count":81,"pixel_bbox":[322,1002,330,1010],"bbox_wgs84":[-5.18280029296875,37.73271097867418,-5.170440673828125,37.74248523826607],"avg_color":"#FE0000"}},{"type":"Feature","id":"viirs.hs.today:8:127:98:624:410:88","geometry":{"type":"Point","coordinates":[-0.5429649353027344,38.37730211526105]},"properties":{"id":"viirs.hs.today:8:127:98:624:410:88","source":"effis_wmts","source_mode":"effis","layer":"viirs.hs.today","zoom":8,"tile_x":127,"tile_y":98,"pixel_count":88,"pixel_bbox":[624,410,633,420],"bbox_wgs84":[-0.54931640625,38.370732250376854,-0.53558349609375,38.38257470377023],"avg_color":"#FCA4B6"}},{"type":"Feature","id":"viirs.hs.today:8:123:99:844:324:91","geometry":{"type":"Point","coordinates":[-5.8654542021699,37.360100068472754]},"properties":{"id":"viirs.hs.today:8:123:99:844:324:91","source":"effis_wmts","source_mode":"effis","layer":"viirs.hs.today","zoom":8,"tile_x":123,"tile_y":99,"pixel_count":91,"pixel_bbox":[844,324,854,333],"bbox_wgs84":[-5.8721923828125,37.35487607348372,-5.857086181640625,37.36579146999664],"avg_color":"#FD6A76"}},{"type":"Feature","id":"viirs.hs.today:8:123:99:256:325:44","geometry":{"type":"Point","coordinates":[-6.6731955788352195,37.36053243168375]},"properties":{"id":"viirs.hs.today:8:123:99:256:325:44","source":"effis_wmts","source_mode":"effis","layer":"viirs.hs.today","zoom":8,"tile_x":123,"tile_y":99,"pixel_count":44,"pixel_bbox":[256,325,264,332],"bbox_wgs84":[-6.6796875,37.35596768457641,-6.667327880859375,37.36470000178872],"avg_color":"#FC0000"}},{"type":"Feature","id":"viirs.hs.today:8:124:99:163:50:81","geometry":{"type":"Point","coordinates":[-5.3949737548828125,37.65936290748539]},"properties":{"id":"viirs.hs.today:8:124:99:163:50:81","source":"effis_wmts","source_mode":"effis","layer":"viirs.hs.today","zoom":8,"tile_x":124,"tile_y":99,"pixel_count":81,"pixel_bbox":[163,50,171,58],"bbox_wgs84":[-5.401153564453125,37.65447045641624,-5.3887939453125,37.66425503616459],"avg_color":"#FE0000"}},{"type":"Feature","id":"viirs.hs.today:8:124:99:937:912:100","geometry":{"type":"Point","coordinates":[-4.331964111328119,36.71422865148362]},"properties":{"id":"viirs.hs.today:8:124:99:937:912:100","source":"effis_wmts","source_mode":"effis","layer":"viirs.hs.today","zoom":8,"tile_x":124,"tile_y":99,"pixel_count":100,"pixel_bbox":[937,912,945,923],"bbox_wgs84":[-4.338226318359375,36.708063546476254,-4.32586669921875,36.721273880045],"avg_color":"#FD5761"}},{"type":"Feature","id":"viirs.hs.today:8:126:99:655:682:91","geometry":{"type":"Point","coordinates":[-1.9065429352141905,36.968516541376324]},"properties":{"id":"viirs.hs.today:8:126:99:655:682:91","source":"effis_wmts","source_mode":"effis","layer":"viirs.hs.today","zoom":8,"tile_x":126,"tile_y":99,"pixel_count":91,"pixel_bbox":[655,682,664,692],"bbox_wgs84":[-1.912994384765625,36.96196312487764,-1.899261474609375,36.974032549418624],"avg_color":"#FDB3C7"}},{"type":"Feature","id":"viirs.hs.today:8:123:100:778:900:48","geometry":{"type":"Point","coordinates":[-5.95733642578125,35.594227315180504]},"properties":{"id":"viirs.hs.today:8:123:100:778:900:48","source":"effis_wmts","source_mode":"effis","layer":"viirs.hs.today","zoom":8,"tile_x":123,"tile_y":100,"pixel_count":48,"pixel_bbox":[778,900,785,908],"bbox_wgs84":[-5.96282958984375,35.589201987162404,-5.95184326171875,35.599252327729495],"avg_color":"#FB0000"}},{"type":"Feature","id":"viirs.hs.today:8:124:100:143:376:65","geometry":{"type":"Point","coordinates":[-5.422270554762633,36.17710039595636]},"properties":{"id":"viirs.hs.today:8:124:100:143:376:65","source":"effis_wmts","source_mode":"effis","layer":"viirs.hs.today","zoom":8,"tile_x":124,"tile_y":100,"pixel_count":65,"pixel_bbox":[143,376,151,384],"bbox_wgs84":[-5.428619384765625,36.17224835899679,-5.416259765625,36.182224980422504],"avg_color":"#FC0000"}},{"type":"Feature","id":"viirs.hs.today:8:127:100:795:687:90","geometry":{"type":"Point","coordinates":[-0.3067626953125,35.83106361722826]},"properties":{"id":"viirs.hs.today:8:127:100:795:687:90","source":"effis_wmts","source_mode":"effis","layer":"viirs.hs.today","zoom":8,"tile_x":127,"tile_y":100,"pixel_count":90,"pixel_bbox":[795,687,806,696],"bbox_wgs84":[-0.314483642578125,35.82560781396721,-0.298004150390625,35.83674170797378],"avg_color":"#FC818F"}},{"type":"Feature","id":"viirs.hs.today:8:127:100:818:699:483","geometry":{"type":"Point","coordinates":[-0.262206178274198,35.81080515410078]},"properties":{"id":"viirs.hs.today:8:127:100:818:699:483","source":"effis_wmts","source_mode":"effis","layer":"viirs.hs.today","zoom":8,"tile_x":127,"tile_y":100,"pixel_count":483,"pixel_bbox":[818,699,849,720],"bbox_wgs84":[-0.28289794921875,35.79888009533626,-0.23895263671875,35.823380847706545],"avg_color":"#FD6F7B"}},{"type":"Feature","id":"viirs.hs.today:8:127:100:765:708:128","geometry":{"type":"Point","coordinates":[-0.3449857234954834,35.80768592337993]},"properties":{"id":"viirs.hs.today:8:127:100:765:708:128","source":"effis_wmts","source_mode":"effis","layer":"viirs.hs.today","zoom":8,"tile_x":127,"tile_y":100,"pixel_count":128,"pixel_bbox":[765,708,779,718],"bbox_wgs84":[-0.355682373046875,35.801107748817834,-0.3350830078125,35.8133587263335],"avg_color":"#FD8492"}},{"type":"Feature","id":"viirs.hs.today:8:127:100:864:712:83","geometry":{"type":"Point","coordinates":[-0.21338129618081325,35.80387880888414]},"properties":{"id":"viirs.hs.today:8:127:100:864:712:83","source":"effis_wmts","source_mode":"effis","layer":"viirs.hs.today","zoom":8,"tile_x":127,"tile_y":100,"pixel_count":83,"pixel_bbox":[864,712,873,720],"bbox_wgs84":[-0.2197265625,35.79888009533626,-0.20599365234375,35.80890404406862],"avg_color":"#FEAABC"}},{"type":"Feature","id":"viirs.hs.today:8:127:100:887:716:100","geometry":{"type":"Point","coordinates":[-0.18062896728514488,35.79872415725322]},"properties":{"id":"viirs.hs.today:8:127:100:887:716:100","source":"effis_wmts","source_mode":"effis","layer":"viirs.hs.today","zoom":8,"tile_x":127,"tile_y":100,"pixel_count":100,"pixel_bbox":[887,716,898,725],"bbox_wgs84":[-0.188140869140625,35.793310688351724,-0.171661376953125,35.804449111914906],"avg_color":"#FD0101"}},{"type":"Feature","id":"viirs.hs.today:8:127:100:821:747:104","geometry":{"type":"Point","coordinates":[-0.271502274733308,35.76363630787023]},"properties":{"id":"viirs.hs.today:8:127:100:821:747:104","source":"effis_wmts","source_mode":"effis","layer":"viirs.hs.today","zoom":8,"tile_x":127,"tile_y":100,"pixel_count":104,"pixel_bbox":[821,747,831,757],"bbox_wgs84":[-0.278778076171875,35.75765724051559,-0.263671875,35.769914916354765],"avg_color":"#FDABBE"}},{"type":"Feature","id":"viirs.hs.today:8:127:100:583:844:48","geometry":{"type":"Point","coordinates":[-0.5994415283203125,35.65729624809628]},"properties":{"id":"viirs.hs.today:8:127:100:583:844:48","source":"effis_wmts","source_mode":"effis","layer":"viirs.hs.today","zoom":8,"tile_x":127,"tile_y":100,"pixel_count":48,"pixel_bbox":[583,844,591,851],"bbox_wgs84":[-0.605621337890625,35.65283282745163,-0.59326171875,35.66175941929504],"avg_color":"#F90404"}},{"type":"Feature","id":"viirs.hs.today:8:127:100:336:923:82","geometry":{"type":"Point","coordinates":[-0.9375055824837943,35.5684708777287]},"properties":{"id":"viirs.hs.today:8:127:100:336:923:82","source":"effis_wmts","source_mode":"effis","layer":"viirs.hs.today","zoom":8,"tile_x":127,"tile_y":100,"pixel_count":82,"pixel_bbox":[336,923,345,931],"bbox_wgs84":[-0.94482421875,35.563512051219696,-0.93109130859375,35.573565616089304],"avg_color":"#FDA6B8"}},{"type":"Feature","id":"viirs.hs.today:8:127:100:817:953:159","geometry":{"type":"Point","coordinates":[-0.2765626727410222,35.53179395935848]},"properties":{"id":"viirs.hs.today:8:127:100:817:953:159","source":"effis_wmts","source_mode":"effis","layer":"viirs.hs.today","zoom":8,"tile_x":127,"tile_y":100,"pixel_count":159,"pixel_bbox":[817,953,828,967],"bbox_wgs84":[-0.284271240234375,35.52328517910781,-0.267791748046875,35.54004882795014],"avg_color":"#FD92A2"}},{"type":"Feature","id":"viirs.hs.today:8:127:100:732:1021:27","geometry":{"type":"Point","coordinates":[-0.3948211669921875,35.46234778101838]},"properties":{"id":"viirs.hs.today:8:127:100:732:1021:27","source":"effis_wmts","source_mode":"effis","layer":"viirs.hs.today","zoom":8,"tile_x":127,"tile_y":100,"pixel_count":27,"pixel_bbox":[732,1021,740,1023],"bbox_wgs84":[-0.4010009765625,35.4606699514953,-0.388641357421875,35.464025575544674],"avg_color":"#FDADC1"}},{"type":"Feature","id":"viirs.hs.today:8:131:100:915:233:45","geometry":{"type":"Point","coordinates":[5.4817962646484375,36.33534797055879]},"properties":{"id":"viirs.hs.today:8:131:100:915:233:45","source":"effis_wmts","source_mode":"effis","layer":"viirs.hs.today","zoom":8,"tile_x":131,"tile_y":100,"pixel_count":45,"pixel_bbox":[915,233,923,241],"bbox_wgs84":[5.475311279296875,36.33061543982087,5.4876708984375,36.3405718589472],"avg_color":"#FC0000"}},{"type":"Feature","id":"viirs.hs.today:8:131:100:161:643:60","geometry":{"type":"Point","coordinates":[4.446189880371094,35.88116893499891]},"properties":{"id":"viirs.hs.today:8:131:100:161:643:60","source":"effis_wmts","source_mode":"effis","layer":"viirs.hs.today","zoom":8,"tile_x":131,"tile_y":100,"pixel_count":60,"pixel_bbox":[161,643,169,650],"bbox_wgs84":[4.439849853515625,35.87681078903906,4.45220947265625,35.885712278670255],"avg_color":"#FDB2C6"}},{"type":"Feature","id":"viirs.hs.today:8:127:101:732:0:54","geometry":{"type":"Point","coordinates":[-0.3948211669921875,35.45731418746162]},"properties":{"id":"viirs.hs.today:8:127:101:732:0:54","source":"effis_wmts","source_mode":"effis","layer":"viirs.hs.today","zoom":8,"tile_x":127,"tile_y":101,"pixel_count":54,"pixel_bbox":[732,0,740,5],"bbox_wgs84":[-0.4010009765625,35.4539582834493,-0.388641357421875,35.4606699514953],"avg_color":"#FDB3C7"}},{"type":"Feature","id":"viirs.hs.today:8:128:101:233:583:45","geometry":{"type":"Point","coordinates":[0.3264617919921875,34.8010867771102]},"properties":{"id":"viirs.hs.today:8:128:101:233:583:45","source":"effis_wmts","source_mode":"effis","layer":"viirs.hs.today","zoom":8,"tile_x":128,"tile_y":101,"pixel_count":45,"pixel_bbox":[233,583,241,591],"bbox_wgs84":[0.319976806640625,34.79576153473033,0.33233642578125,34.80591052326041],"avg_color":"#FB0000"}},{"type":"Feature","id":"viirs.hs.today:8:121:102:896:1020:29","geometry":{"type":"Point","coordinates":[-8.606912020979252,33.13959330310343]},"properties":{"id":"viirs.hs.today:8:121:102:896:1020:29","source":"effis_wmts","source_mode":"effis","layer":"viirs.hs.today","zoom":8,"tile_x":121,"tile_y":102,"pixel_count":29,"pixel_bbox":[896,1020,904,1023],"bbox_wgs84":[-8.61328125,33.137551192346145,-8.600921630859375,33.14215083110535],"avg_color":"#FC0000"}},{"type":"Feature","id":"viirs.hs.today:8:122:102:748:692:97","geometry":{"type":"Point","coordinates":[-7.402314648185808,33.5115881112299]},"properties":{"id":"viirs.hs.today:8:122:102:748:692:97","source":"effis_wmts","source_mode":"effis","layer":"viirs.hs.today","zoom":8,"tile_x":122,"tile_y":102,"pixel_count":97,"pixel_bbox":[748,692,758,702],"bbox_wgs84":[-7.4102783203125,33.50590416659622,-7.395172119140625,33.518499237656094],"avg_color":"#FCB2C6"}},{"type":"Feature","id":"viirs.hs.today:8:122:102:701:702:60","geometry":{"type":"Point","coordinates":[-7.469329833984375,33.50189625951751]},"properties":{"id":"viirs.hs.today:8:122:102:701:702:60","source":"effis_wmts","source_mode":"effis","layer":"viirs.hs.today","zoom":8,"tile_x":122,"tile_y":102,"pixel_count":60,"pixel_bbox":[701,702,708,710],"bbox_wgs84":[-7.474822998046875,33.49674296343327,-7.463836669921875,33.50704924881552],"avg_color":"#FDB3C6"}},{"type":"Feature","id":"viirs.hs.today:8:123:102:327:18:45","geometry":{"type":"Point","coordinates":[-6.5756988525390625,34.281364337463714]},"properties":{"id":"viirs.hs.today:8:123:102:327:18:45","source":"effis_wmts","source_mode":"effis","layer":"viirs.hs.today","zoom":8,"tile_x":123,"tile_y":102,"pixel_count":45,"pixel_bbox":[327,18,335,26],"bbox_wgs84":[-6.582183837890625,34.27651009584797,-6.56982421875,34.28672259033594],"avg_color":"#FC0000"}},{"type":"Feature","id":"viirs.hs.today:8:123:102:55:362:60","geometry":{"type":"Point","coordinates":[-6.9495391845703125,33.89093747081252]},"properties":{"id":"viirs.hs.today:8:123:102:55:362:60","source":"effis_wmts","source_mode":"effis","layer":"viirs.hs.today","zoom":8,"tile_x":123,"tile_y":102,"pixel_count":60,"pixel_bbox":[55,362,63,369],"bbox_wgs84":[-6.955718994140625,33.88637747072754,-6.943359375,33.89549722712386],"avg_color":"#FDB3C7"}},{"type":"Feature","id":"viirs.hs.today:8:124:102:477:654:85","geometry":{"type":"Point","coordinates":[-4.96355034323301,33.5566706290691]},"properties":{"id":"viirs.hs.today:8:124:102:477:654:85","source":"effis_wmts","source_mode":"effis","layer":"viirs.hs.today","zoom":8,"tile_x":124,"tile_y":102,"pixel_count":85,"pixel_bbox":[477,654,486,663],"bbox_wgs84":[-4.969940185546875,33.55055114384406,-4.956207275390625,33.56199537293026],"avg_color":"#FCB3C6"}},{"type":"Feature","id":"viirs.hs.today:8:124:102:433:876:97","geometry":{"type":"Point","coordinates":[-5.022953466041798,33.29947772873394]},"properties":{"id":"viirs.hs.today:8:124:102:433:876:97","source":"effis_wmts","source_mode":"effis","layer":"viirs.hs.today","zoom":8,"tile_x":124,"tile_y":102,"pixel_count":97,"pixel_bbox":[433,876,443,888],"bbox_wgs84":[-5.030364990234375,33.29265566252139,-5.0152587890625,33.30757713015297],"avg_color":"#FDB3C6"}},{"type":"Feature","id":"viirs.hs.today:8:124:102:471:893:40","geometry":{"type":"Point","coordinates":[-4.972686767578125,33.28347195224925]},"properties":{"id":"viirs.hs.today:8:124:102:471:893:40","source":"effis_wmts","source_mode":"effis","layer":"viirs.hs.today","zoom":8,"tile_x":124,"tile_y":102,"pixel_count":40,"pixel_bbox":[471,893,478,900],"bbox_wgs84":[-4.978179931640625,33.27887973469339,-4.967193603515625,33.28806392819751],"avg_color":"#FEB3C7"}},{"type":"Feature","id":"viirs.hs.today:8:124:102:407:918:69","geometry":{"type":"Point","coordinates":[-5.0592936640200605,33.25331031077991]},"properties":{"id":"viirs.hs.today:8:124:102:407:918:69","source":"effis_wmts","source_mode":"effis","layer":"viirs.hs.today","zoom":8,"tile_x":124,"tile_y":102,"pixel_count":69,"pixel_bbox":[407,918,416,927],"bbox_wgs84":[-5.066070556640625,33.24787594792438,-5.052337646484375,33.25936011503665],"avg_color":"#FDB3C7"}},{"type":"Feature","id":"viirs.hs.today:8:124:102:415:945:43","geometry":{"type":"Point","coordinates":[-5.0493515369503825,33.223553910846825]},"properties":{"id":"viirs.hs.today:8:124:102:415:945:43","source":"effis_wmts","source_mode":"effis","layer":"viirs.hs.today","zoom":8,"tile_x":124,"tile_y":102,"pixel_count":43,"pixel_bbox":[415,945,422,952],"bbox_wgs84":[-5.055084228515625,33.21915892782509,-5.044097900390625,33.228349400284635],"avg_color":"#FCB2C5"}},{"type":"Feature","id":"viirs.hs.today:8:121:103:896:0:36","geometry":{"type":"Point","coordinates":[-8.606948852539062,33.135123508031086]},"properties":{"id":"viirs.hs.today:8:121:103:896:0:36","source":"effis_wmts","source_mode":"effis","layer":"viirs.hs.today","zoom":8,"tile_x":121,"tile_y":103,"pixel_count":36,"pixel_bbox":[896,0,904,4],"bbox_wgs84":[-8.61328125,33.13180130489295,-8.600921630859375,33.137551192346145],"avg_color":"#FCB2C6"}},{"type":"Feature","id":"viirs.hs.today:8:121:103:900:20:84","geometry":{"type":"Point","coordinates":[-8.600333077566972,33.10922250951815]},"properties":{"id":"viirs.hs.today:8:121:103:900:20:84","source":"effis_wmts","source_mode":"effis","layer":"viirs.hs.today","zoom":8,"tile_x":121,"tile_y":103,"pixel_count":84,"pixel_bbox":[900,20,909,29],"bbox_wgs84":[-8.6077880859375,33.10304621868762,-8.59405517578125,33.11454938282454],"avg_color":"#FD9BAD"}},{"type":"Feature","id":"viirs.hs.today:8:122:103:654:67:61","geometry":{"type":"Point","coordinates":[-7.533345456983227,33.05489574568909]},"properties":{"id":"viirs.hs.today:8:122:103:654:67:61","source":"effis_wmts","source_mode":"effis","layer":"viirs.hs.today","zoom":8,"tile_x":122,"tile_y":103,"pixel_count":61,"pixel_bbox":[654,67,662,75],"bbox_wgs84":[-7.53936767578125,33.050112271849656,-7.527008056640625,33.06047141970812],"avg_color":"#FDB2C6"}},{"type":"Feature","id":"viirs.hs.today:8:122:103:934:123:74","geometry":{"type":"Point","coordinates":[-7.148388012035468,32.99021999389014]},"properties":{"id":"viirs.hs.today:8:122:103:934:123:74","source":"effis_wmts","source_mode":"effis","layer":"viirs.hs.today","zoom":8,"tile_x":122,"tile_y":103,"pixel_count":74,"pixel_bbox":[934,123,942,133],"bbox_wgs84":[-7.15484619140625,32.98332409183748,-7.142486572265625,32.99599470276582],"avg_color":"#FD8896"}},{"type":"Feature","id":"viirs.hs.today:8:130:103:402:198:120","geometry":{"type":"Point","coordinates":[3.372802734375,32.90322683541995]},"properties":{"id":"viirs.hs.today:8:130:103:402:198:120","source":"effis_wmts","source_mode":"effis","layer":"viirs.hs.today","zoom":8,"tile_x":130,"tile_y":103,"pixel_count":120,"pixel_bbox":[402,198,413,208],"bbox_wgs84":[3.36456298828125,32.896885106142896,3.38104248046875,32.909568110575655],"avg_color":"#FD0000"}},{"type":"Feature","id":"viirs.hs.today:8:121:105:497:444:96","geometry":{"type":"Point","coordinates":[-9.15402889251709,30.22017478067705]},"properties":{"id":"viirs.hs.today:8:121:105:497:444:96","source":"effis_wmts","source_mode":"effis","layer":"viirs.hs.today","zoom":8,"tile_x":121,"tile_y":105,"pixel_count":96,"pixel_bbox":[497,444,507,453],"bbox_wgs84":[-9.161224365234375,30.21398171687066,-9.1461181640625,30.225848323247707],"avg_color":"#FD6974"}}]}